<?xml version="1.0" encoding="UTF-8"?>
<ndm xmlns:xsi="http://www.w3.org/2001/XMLSchema-instance" xsi:noNamespaceSchemaLocation="https://sanaregistry.org/r/ndmxml_unqualified/ndmxml-2.0.0-master-2.0.xsd">
<omm id="CCSDS_OMM_VERS" version="2.0">
<header><CREATION_DATE/><ORIGINATOR/></header><body><segment><metadata><OBJECT_NAME>QIANFAN-9</OBJECT_NAME><OBJECT_ID>2024-140J</OBJECT_ID><CENTER_NAME>EARTH</CENTER_NAME><REF_FRAME>TEME</REF_FRAME><TIME_SYSTEM>UTC</TIME_SYSTEM><MEAN_ELEMENT_THEORY>SGP4</MEAN_ELEMENT_THEORY></metadata><data><meanElements><EPOCH>2025-10-12T13:56:57.916032</EPOCH><MEAN_MOTION>13.50973564</MEAN_MOTION><ECCENTRICITY>.00168634</ECCENTRICITY><INCLINATION>88.9750</INCLINATION><RA_OF_ASC_NODE>305.6776</RA_OF_ASC_NODE><ARG_OF_PERICENTER>21.7586</ARG_OF_PERICENTER><MEAN_ANOMALY>338.4278</MEAN_ANOMALY></meanElements><tleParameters><EPHEMERIS_TYPE>0</EPHEMERIS_TYPE><CLASSIFICATION_TYPE>U</CLASSIFICATION_TYPE><NORAD_CAT_ID>60387</NORAD_CAT_ID><ELEMENT_SET_NO>999</ELEMENT_SET_NO><REV_AT_EPOCH>5907</REV_AT_EPOCH><BSTAR>.50002816E-4</BSTAR><MEAN_MOTION_DOT>.44E-6</MEAN_MOTION_DOT><MEAN_MOTION_DDOT>0</MEAN_MOTION_DDOT></tleParameters></data></segment></body></omm>
<omm id="CCSDS_OMM_VERS" version="2.0">
<header><CREATION_DATE/><ORIGINATOR/></header><body><segment><metadata><OBJECT_NAME>QIANFAN-10</OBJECT_NAME><OBJECT_ID>2024-140K</OBJECT_ID><CENTER_NAME>EARTH</CENTER_NAME><REF_FRAME>TEME</REF_FRAME><TIME_SYSTEM>UTC</TIME_SYSTEM><MEAN_ELEMENT_THEORY>SGP4</MEAN_ELEMENT_THEORY></metadata><data><meanElements><EPOCH>2025-10-12T14:02:56.360256</EPOCH><MEAN_MOTION>13.50970393</MEAN_MOTION><ECCENTRICITY>.00145031</ECCENTRICITY><INCLINATION>88.9755</INCLINATION><RA_OF_ASC_NODE>305.0185</RA_OF_ASC_NODE><ARG_OF_PERICENTER>0.3281</ARG_OF_PERICENTER><MEAN_ANOMALY>359.7877</MEAN_ANOMALY></meanElements><tleParameters><EPHEMERIS_TYPE>0</EPHEMERIS_TYPE><CLASSIFICATION_TYPE>U</CLASSIFICATION_TYPE><NORAD_CAT_ID>60388</NORAD_CAT_ID><ELEMENT_SET_NO>999</ELEMENT_SET_NO><REV_AT_EPOCH>5920</REV_AT_EPOCH><BSTAR>.32473683E-4</BSTAR><MEAN_MOTION_DOT>.33E-6</MEAN_MOTION_DOT><MEAN_MOTION_DDOT>0</MEAN_MOTION_DDOT></tleParameters></data></segment></body></omm>
<omm id="CCSDS_OMM_VERS" version="2.0">
<header><CREATION_DATE/><ORIGINATOR/></header><body><segment><metadata><OBJECT_NAME>QIANFAN-11</OBJECT_NAME><OBJECT_ID>2024-140L</OBJECT_ID><CENTER_NAME>EARTH</CENTER_NAME><REF_FRAME>TEME</REF_FRAME><TIME_SYSTEM>UTC</TIME_SYSTEM><MEAN_ELEMENT_THEORY>SGP4</MEAN_ELEMENT_THEORY></metadata><data><meanElements><EPOCH>2025-10-12T14:56:12.242688</EPOCH><MEAN_MOTION>13.50970987</MEAN_MOTION><ECCENTRICITY>.00148965</ECCENTRICITY><INCLINATION>88.9682</INCLINATION><RA_OF_ASC_NODE>305.6475</RA_OF_ASC_NODE><ARG_OF_PERICENTER>22.2819</ARG_OF_PERICENTER><MEAN_ANOMALY>337.8977</MEAN_ANOMALY></meanElements><tleParameters><EPHEMERIS_TYPE>0</EPHEMERIS_TYPE><CLASSIFICATION_TYPE>U</CLASSIFICATION_TYPE><NORAD_CAT_ID>60389</NORAD_CAT_ID><ELEMENT_SET_NO>999</ELEMENT_SET_NO><REV_AT_EPOCH>5886</REV_AT_EPOCH><BSTAR>.11701117E-4</BSTAR><MEAN_MOTION_DOT>.2E-6</MEAN_MOTION_DOT><MEAN_MOTION_DDOT>0</MEAN_MOTION_DDOT></tleParameters></data></segment></body></omm>
<omm id="CCSDS_OMM_VERS" version="2.0">
<header><CREATION_DATE/><ORIGINATOR/></header><body><segment><metadata><OBJECT_NAME>QIANFAN-12</OBJECT_NAME><OBJECT_ID>2024-140M</OBJECT_ID><CENTER_NAME>EARTH</CENTER_NAME><REF_FRAME>TEME</REF_FRAME><TIME_SYSTEM>UTC</TIME_SYSTEM><MEAN_ELEMENT_THEORY>SGP4</MEAN_ELEMENT_THEORY></metadata><data><meanElements><EPOCH>2025-10-12T15:25:45.556032</EPOCH><MEAN_MOTION>13.50971235</MEAN_MOTION><ECCENTRICITY>.0014009</ECCENTRICITY><INCLINATION>88.9726</INCLINATION><RA_OF_ASC_NODE>305.6620</RA_OF_ASC_NODE><ARG_OF_PERICENTER>30.6269</ARG_OF_PERICENTER><MEAN_ANOMALY>329.5697</MEAN_ANOMALY></meanElements><tleParameters><EPHEMERIS_TYPE>0</EPHEMERIS_TYPE><CLASSIFICATION_TYPE>U</CLASSIFICATION_TYPE><NORAD_CAT_ID>60390</NORAD_CAT_ID><ELEMENT_SET_NO>999</ELEMENT_SET_NO><REV_AT_EPOCH>5899</REV_AT_EPOCH><BSTAR>.33564204E-4</BSTAR><MEAN_MOTION_DOT>.34E-6</MEAN_MOTION_DOT><MEAN_MOTION_DDOT>0</MEAN_MOTION_DDOT></tleParameters></data></segment></body></omm>
<omm id="CCSDS_OMM_VERS" version="2.0">
<header><CREATION_DATE/><ORIGINATOR/></header><body><segment><metadata><OBJECT_NAME>QIANFAN-13</OBJECT_NAME><OBJECT_ID>2024-140N</OBJECT_ID><CENTER_NAME>EARTH</CENTER_NAME><REF_FRAME>TEME</REF_FRAME><TIME_SYSTEM>UTC</TIME_SYSTEM><MEAN_ELEMENT_THEORY>SGP4</MEAN_ELEMENT_THEORY></metadata><data><meanElements><EPOCH>2025-10-12T14:44:18.639168</EPOCH><MEAN_MOTION>13.50971458</MEAN_MOTION><ECCENTRICITY>.00139208</ECCENTRICITY><INCLINATION>88.9739</INCLINATION><RA_OF_ASC_NODE>305.7574</RA_OF_ASC_NODE><ARG_OF_PERICENTER>33.2870</ARG_OF_PERICENTER><MEAN_ANOMALY>326.9154</MEAN_ANOMALY></meanElements><tleParameters><EPHEMERIS_TYPE>0</EPHEMERIS_TYPE><CLASSIFICATION_TYPE>U</CLASSIFICATION_TYPE><NORAD_CAT_ID>60391</NORAD_CAT_ID><ELEMENT_SET_NO>999</ELEMENT_SET_NO><REV_AT_EPOCH>5901</REV_AT_EPOCH><BSTAR>.43827199E-4</BSTAR><MEAN_MOTION_DOT>.4E-6</MEAN_MOTION_DOT><MEAN_MOTION_DDOT>0</MEAN_MOTION_DDOT></tleParameters></data></segment></body></omm>
<omm id="CCSDS_OMM_VERS" version="2.0">
<header><CREATION_DATE/><ORIGINATOR/></header><body><segment><metadata><OBJECT_NAME>QIANFAN-14</OBJECT_NAME><OBJECT_ID>2024-140P</OBJECT_ID><CENTER_NAME>EARTH</CENTER_NAME><REF_FRAME>TEME</REF_FRAME><TIME_SYSTEM>UTC</TIME_SYSTEM><MEAN_ELEMENT_THEORY>SGP4</MEAN_ELEMENT_THEORY></metadata><data><meanElements><EPOCH>2025-10-12T15:19:44.090400</EPOCH><MEAN_MOTION>13.50971941</MEAN_MOTION><ECCENTRICITY>.00175739</ECCENTRICITY><INCLINATION>88.9717</INCLINATION><RA_OF_ASC_NODE>305.6655</RA_OF_ASC_NODE><ARG_OF_PERICENTER>31.4244</ARG_OF_PERICENTER><MEAN_ANOMALY>328.7953</MEAN_ANOMALY></meanElements><tleParameters><EPHEMERIS_TYPE>0</EPHEMERIS_TYPE><CLASSIFICATION_TYPE>U</CLASSIFICATION_TYPE><NORAD_CAT_ID>60392</NORAD_CAT_ID><ELEMENT_SET_NO>999</ELEMENT_SET_NO><REV_AT_EPOCH>5902</REV_AT_EPOCH><BSTAR>.31979262E-4</BSTAR><MEAN_MOTION_DOT>.33E-6</MEAN_MOTION_DOT><MEAN_MOTION_DDOT>0</MEAN_MOTION_DDOT></tleParameters></data></segment></body></omm>
<omm id="CCSDS_OMM_VERS" version="2.0">
<header><CREATION_DATE/><ORIGINATOR/></header><body><segment><metadata><OBJECT_NAME>QIANFAN-15</OBJECT_NAME><OBJECT_ID>2024-140Q</OBJECT_ID><CENTER_NAME>EARTH</CENTER_NAME><REF_FRAME>TEME</REF_FRAME><TIME_SYSTEM>UTC</TIME_SYSTEM><MEAN_ELEMENT_THEORY>SGP4</MEAN_ELEMENT_THEORY></metadata><data><meanElements><EPOCH>2025-10-12T13:44:55.661280</EPOCH><MEAN_MOTION>13.50975694</MEAN_MOTION><ECCENTRICITY>.00129381</ECCENTRICITY><INCLINATION>88.9743</INCLINATION><RA_OF_ASC_NODE>305.6144</RA_OF_ASC_NODE><ARG_OF_PERICENTER>20.8289</ARG_OF_PERICENTER><MEAN_ANOMALY>339.3387</MEAN_ANOMALY></meanElements><tleParameters><EPHEMERIS_TYPE>0</EPHEMERIS_TYPE><CLASSIFICATION_TYPE>U</CLASSIFICATION_TYPE><NORAD_CAT_ID>60393</NORAD_CAT_ID><ELEMENT_SET_NO>999</ELEMENT_SET_NO><REV_AT_EPOCH>5900</REV_AT_EPOCH><BSTAR>.47120974E-4</BSTAR><MEAN_MOTION_DOT>.42E-6</MEAN_MOTION_DOT><MEAN_MOTION_DDOT>0</MEAN_MOTION_DDOT></tleParameters></data></segment></body></omm>
<omm id="CCSDS_OMM_VERS" version="2.0">
<header><CREATION_DATE/><ORIGINATOR/></header><body><segment><metadata><OBJECT_NAME>QIANFAN-16</OBJECT_NAME><OBJECT_ID>2024-140R</OBJECT_ID><CENTER_NAME>EARTH</CENTER_NAME><REF_FRAME>TEME</REF_FRAME><TIME_SYSTEM>UTC</TIME_SYSTEM><MEAN_ELEMENT_THEORY>SGP4</MEAN_ELEMENT_THEORY></metadata><data><meanElements><EPOCH>2025-10-12T15:14:01.754592</EPOCH><MEAN_MOTION>13.50970937</MEAN_MOTION><ECCENTRICITY>.00156498</ECCENTRICITY><INCLINATION>88.9746</INCLINATION><RA_OF_ASC_NODE>305.7262</RA_OF_ASC_NODE><ARG_OF_PERICENTER>35.9178</ARG_OF_PERICENTER><MEAN_ANOMALY>324.3022</MEAN_ANOMALY></meanElements><tleParameters><EPHEMERIS_TYPE>0</EPHEMERIS_TYPE><CLASSIFICATION_TYPE>U</CLASSIFICATION_TYPE><NORAD_CAT_ID>60394</NORAD_CAT_ID><ELEMENT_SET_NO>999</ELEMENT_SET_NO><REV_AT_EPOCH>5892</REV_AT_EPOCH><BSTAR>.16246205E-4</BSTAR><MEAN_MOTION_DOT>.23E-6</MEAN_MOTION_DOT><MEAN_MOTION_DDOT>0</MEAN_MOTION_DDOT></tleParameters></data></segment></body></omm>

</ndm>
