QIANFAN-9               
1 60387U 24140J   25285.58122588  .00000044  00000+0  50003-4 0  9995
2 60387  88.9750 305.6776 0016863  21.7586 338.4278 13.50973564 59079
QIANFAN-10              
1 60388U 24140K   25285.58537454  .00000033  00000+0  32474-4 0  9998
2 60388  88.9755 305.0185 0014503   0.3281 359.7877 13.50970393 59200
QIANFAN-11              
1 60389U 24140L   25285.62236392  .00000020  00000+0  11701-4 0  9997
2 60389  88.9682 305.6475 0014896  22.2819 337.8977 13.50970987 58861
QIANFAN-12              
1 60390U 24140M   25285.64288838  .00000034  00000+0  33564-4 0  9999
2 60390  88.9726 305.6620 0014009  30.6269 329.5697 13.50971235 58990
QIANFAN-13              
1 60391U 24140N   25285.61410462  .00000040  00000+0  43827-4 0  9997
2 60391  88.9739 305.7574 0013920  33.2870 326.9154 13.50971458 59012
QIANFAN-14              
1 60392U 24140P   25285.63870475  .00000033  00000+0  31979-4 0  9991
2 60392  88.9717 305.6655 0017573  31.4244 328.7953 13.50971941 59026
QIANFAN-15              
1 60393U 24140Q   25285.57286645  .00000042  00000+0  47121-4 0  9991
2 60393  88.9743 305.6144 0012938  20.8289 339.3387 13.50975694 59006
QIANFAN-16              
1 60394U 24140R   25285.63474253  .00000023  00000+0  16246-4 0  9996
2 60394  88.9746 305.7262 0015649  35.9178 324.3022 13.50970937 58923
